# FY3D (LEO)
1 43010U 17072A   25244.61454174  .00000200  00000+0  11623-3 0  9991
2 43010  98.9701 209.4837 0002137 124.8099 235.3278 14.19637605404047

# FY3E (LEO)
1 49008U 21062A   25244.63571345  .00000052  00000+0  45319-4 0  9995
2 49008  98.7459 246.3547 0001611 157.2879 202.8368 14.19859843215632

# FY3F (LEO)
1 57490U 23111A   25244.62303611  .00000130  00000+0  81984-4 0  9999
2 57490  98.7209 314.5008 0001087 116.5545 243.5743 14.19855856107914

# FY3G (LEO)
1 56232U 23055A   25244.62573275  .00041442  00000+0  64446-3 0  9998
2 56232  49.9955  34.0423 0016702  44.3827 315.8476 15.53306489135154

# C2E1 (LEO)
1 44349U 19036L   25244.51457816  .00006115  00000+0  48738-3 0  9992
2 44349  23.9967 180.3525 0001017 174.5565 185.4947 14.97408008341342

# C2E2 (LEO)
1 44351U 19036N   25244.49197118  .00005700  00000+0  45253-3 0  9996
2 44351  23.9988 296.9091 0001175 157.5814 202.4738 14.97412246340271

# C2E3 (LEO)
1 44343U 19036E   25244.54773299  .00008936  00000+0  56920-3 0  9990
2 44343  24.0001   0.4589 0001502  88.0532 272.0143 15.06355540339612

# C2E4 (LEO)
1 44350U 19036M   25244.40237571  .00005938  00000+0  47265-3 0  9992
2 44350  23.9978 243.1874 0001272 160.8275 199.2274 14.97398543340741

# C2E5 (LEO)
1 44358U 19036V   25244.55224243  .00005969  00000+0  47072-3 0  9998
2 44358  23.9987  56.3149 0001642  56.9285 303.1374 14.97761685339044

# C2E6 (LEO)
1 44353U 19036Q   25244.02543497  .00006660  00000+0  53316-3 0  9997
2 44353  23.9966 120.8793 0001189 190.8830 169.1646 14.97397393338433

# G01 (GNSS)
1 62339U 24242A   25244.63265941 -.00000095  00000+0  00000+0 0  9993
2 62339  54.9542 345.8777 0007177 344.0637 349.1178  2.00559969  5467

# G02 (GNSS)
1 28474U 04045A   25244.62083984 -.00000089  00000+0  00000+0 0  9991
2 28474  55.2881 336.5144 0167124 305.6697  50.4961  2.00564945152636

# G03 (GNSS)
1 40294U 14068A   25243.74995596 -.00000039  00000+0  00000+0 0  9999
2 40294  56.7833  42.1264 0061969  69.4189 291.2680  2.00558662 79402

# G04 (GNSS)
1 43873U 18109A   25244.07185919 -.00000005  00000+0  00000+0 0  9995
2 43873  55.5038 103.6016 0034939 194.7811 337.6691  2.00573762 49278

# G05 (GNSS)
1 35752U 09043A   25244.45588853 -.00000042  00000+0  00000+0 0  9996
2 35752  56.0222  38.8136 0055123  81.3217 288.5623  2.00571653117572

# G06 (GNSS)
1 39741U 14026A   25244.28491081 -.00000094  00000+0  00000+0 0  9999
2 39741  56.6208 342.7621 0035486 317.4669  42.2931  2.00568738 82741

# G07 (GNSS)
1 32711U 08012A   25243.96677487 -.00000013  00000+0  00000+0 0  9998
2 32711  54.4663 161.4760 0200497 244.1117 113.8294  2.00561102127950

# G08 (GNSS)
1 40730U 15033A   25244.54444195  .00000023  00000+0  00000+0 0  9992
2 40730  54.2146 278.9760 0105254  25.2717 335.3060  2.00571010 74207

# G09 (GNSS)
1 40105U 14045A   25244.37575193 -.00000002  00000+0  00000+0 0  9992
2 40105  55.1615  99.9829 0032374 116.6810 243.7324  2.00566320 80280

# G10 (GNSS)
1 41019U 15062A   25244.10347889 -.00000037  00000+0  00000+0 0  9995
2 41019  56.7593  41.9689 0106200 227.9065 131.2098  2.00567144 72034

# G11 (GNSS)
1 48859U 21054A   25240.91314135 -.00000106  00000+0  00000+0 0  9992
2 48859  55.2932 344.2039 0022559 227.0586 184.5816  2.00559479 30894

# G12 (GNSS)
1 29601U 06052A   25244.24239614  .00000065  00000+0  00000+0 0  9998
2 29601  54.9992 225.4616 0084870  86.9050 274.0639  2.00567492137613

# G13 (GNSS)
1 24876U 97035A   25244.02505586 -.00000008  00000+0  00000+0 0  9996
2 24876  55.8407 109.8870 0094740  55.9465 305.0316  2.00562899206152

# G14 (GNSS)
1 46826U 20078A   25244.33164584  .00000059  00000+0  00000+0 0  9996
2 46826  54.0439 222.4945 0062320 203.5456 326.2750  2.00567236 35711

# G15 (GNSS)
1 32260U 07047A   25244.04834529 -.00000007  00000+0  00000+0 0  9999
2 32260  53.8795  92.0006 0164142  83.3237 278.6209  2.00568847131013

# G16 (GNSS)
1 27663U 03005A   25244.18239296  .00000065  00000+0  00000+0 0  9998
2 27663  54.9551 226.4530 0143754  50.5355 127.6849  2.00550041165516

# G17 (GNSS)
1 28874U 05038A   25243.68146928  .00000006  00000+0  00000+0 0  9999
2 28874  55.1178 284.8494 0133685 291.0436  70.2943  2.00555171146033

# G18 (GNSS)
1 44506U 19056A   25243.71561207 -.00000097  00000+0  00000+0 0  9990
2 44506  55.7585 342.6440 0056130 195.1333 336.5485  2.00563687 44266

# G19 (GNSS)
1 28190U 04009A   25244.21489287  .00000004  00000+0  00000+0 0  9993
2 28190  55.0720 287.3506 0107368 164.9135 199.3957  2.00564854157152

# G20 (GNSS)
1 26360U 00025A   25244.41179075 -.00000057  00000+0  00000+0 0  9996
2 26360  54.9869  30.9743 0036562 233.8189 135.2818  2.00575710185483

# G21 (GNSS)
1 64202U 25116A   25243.90246514 -.00000042  00000+0  00000+0 0  9991
2 64202  55.0308  42.7926 0001738 307.5694  49.6008  2.00565694  2062

# G22 (GNSS)
1 26407U 00040A   25244.36011876  .00000065  00000+0  00000+0 0  9991
2 26407  54.9211 226.6355 0131312 299.6722 232.9921  2.00566812184157

# G23 (GNSS)
1 45854U 20041A   25243.79415075 -.00000042  00000+0  00000+0 0  9992
2 45854  56.4760  40.1929 0056937 199.6148 333.6344  2.00564715 38231

# G24 (GNSS)
1 38833U 12053A   25244.14499645 -.00000017  00000+0  00000+0 0  9992
2 38833  53.5431 155.4408 0170710  62.0214 299.7227  2.00564012 93646

# G25 (GNSS)
1 36585U 10022A   25242.22216766  .00000060  00000+0  00000+0 0  9993
2 36585  54.3257 220.2846 0121847  64.1717 254.0680  2.00573865111754

# G26 (GNSS)
1 40534U 15013A   25243.38502531  .00000055  00000+0  00000+0 0  9997
2 40534  53.2229 216.1659 0101538  35.9063 324.7586  2.00568739 76014

# G27 (GNSS)
1 39166U 13023A   25244.00885164  .00000017  00000+0  00000+0 0  9999
2 39166  54.7357 280.7427 0133056  48.1289 313.0654  2.00565698 90088

# G28 (GNSS)
1 55268U 23009A   25232.06294610 -.00000038  00000+0  00000+0 0  9992
2 55268  55.0964 160.3489 0003753 342.0663 199.8046  2.00564478 19205

# G29 (GNSS)
1 32384U 07062A   25243.61192685  .00000003  00000+0  00000+0 0  9990
2 32384  55.2664 285.7817 0032642 162.8470  10.6363  2.00572386129704

# G30 (GNSS)
1 39533U 14008A   25244.00658813 -.00000014  00000+0  00000+0 0  9998
2 39533  53.6193 161.1145 0078477 226.3267 133.0408  2.00568380 83880

# G31 (GNSS)
1 29486U 06042A   25244.61878428 -.00000013  00000+0  00000+0 0  9995
2 29486  54.6862 162.7932 0105855  48.7549 171.4494  2.00558284138605

# G32 (GNSS)
1 41328U 16007A   25244.18514874 -.00000004  00000+0  00000+0 0  9990
2 41328  55.3417 100.9274 0088344 242.5672 116.6115  2.00566133 70041

# C06 (GNSS)
1 36828U 10036A   25244.30541582 -.00000136  00000+0  00000+0 0  9991
2 36828  54.2796 165.5789 0048472 216.6211 173.9957  1.00255158 55207

# C04 (GNSS)
1 37210U 10057A   25244.51989162 -.00000109  00000+0  00000+0 0  9993
2 37210   2.9243  70.2695 0007224 166.9745  90.9195  1.00272527 54397

# C07 (GNSS)
1 37256U 10068A   25237.55086240 -.00000179  00000+0  00000+0 0  9993
2 37256  48.0796 275.4934 0048600 216.0065 148.5250  1.00267349 53837

# C14 (GNSS)
1 38775U 12050B   25243.41186050 -.00000012  00000+0  00000+0 0  9991
2 38775  56.2866  72.4935 0011503 357.5209   2.5327  1.86231126 87910

# C01 (GNSS)
1 44231U 19027A   25244.62482896 -.00000244  00000+0  00000+0 0  9994
2 44231   1.3975  74.2850 0006429 270.7345   5.4350  1.00275810 23181

# C24 (GNSS)
1 43582U 18062B   25243.01451671  .00000031  00000+0  00000+0 0  9992
2 43582  54.0970 192.1593 0005565  15.4817 344.5170  1.86229911 48236

# C26 (GNSS)
1 43602U 18067A   25244.02507907  .00000023  00000+0  00000+0 0  9997
2 43602  54.1904 190.8467 0007934  28.4942 331.5310  1.86227701 47738

# C25 (GNSS)
1 43603U 18067B   25244.15932550  .00000022  00000+0  00000+0 0  9997
2 43603  54.1876 190.8063 0004631  14.9513 345.0441  1.86227212 47769

# C32 (GNSS)
1 43622U 18072A   25244.11712091 -.00000004  00000+0  00000+0 0  9997
2 43622  56.3676  72.2161 0004253 323.2618  36.7699  1.86231393 47276

# C33 (GNSS)
1 43623U 18072B   25243.98259288 -.00000005  00000+0  00000+0 0  9997
2 43623  56.3695  72.2145 0003831  16.8506 343.2226  1.86231425 47269

# C35 (GNSS)
1 43647U 18078A   25242.53084767 -.00000067  00000+0  00000+0 0  9995
2 43647  54.3525 310.1648 0005839  25.0421 335.0514  1.86232430 46743

# C34 (GNSS)
1 43648U 18078B   25243.73393677 -.00000058  00000+0  00000+0 0  9992
2 43648  54.3471 310.1240 0002479  36.5231 323.5603  1.86232468 46781

# C59 (GNSS)
1 43683U 18085A   25244.56528971 -.00000277  00000+0  00000+0 0  9991
2 43683   2.8487 105.7793 0003922   6.8785 211.7891  1.00267956 25166

# C36 (GNSS)
1 43706U 18093A   25244.16375022  .00000024  00000+0  00000+0 0  9998
2 43706  54.1806 192.1021 0009380 292.3970 250.6669  1.86228438 46156

# C37 (GNSS)
1 43707U 18093B   25244.28923723  .00000023  00000+0  00000+0 0  9998
2 43707  54.1814 192.0896 0007778 322.3948  37.5316  1.86230077 46156

# C38 (GNSS)
1 44204U 19023A   25244.33427778 -.00000185  00000+0  00000+0 0  9990
2 44204  58.2898  40.6332 0025025 215.2899 324.2667  1.00275363  4319

# C39 (GNSS)
1 44337U 19035A   25244.23805247 -.00000153  00000+0  00000+0 0  9995
2 44337  55.2153 161.4044 0035022 208.9743 171.9090  1.00247433 22778

# C46 (GNSS)
1 44542U 19061A   25244.36055690  .00000023  00000+0  00000+0 0  9990
2 44542  54.4082 192.4692 0008648 359.7048   0.2752  1.86229430 40419

# C45 (GNSS)
1 44543U 19061B   25242.71158588  .00000034  00000+0  00000+0 0  9990
2 44543  54.4071 192.4931 0005757 343.2593 263.9601  1.86229665 40382

# C40 (GNSS)
1 44709U 19073A   25243.51359100 -.00000146  00000+0  00000+0 0  9994
2 44709  55.2966 284.0286 0045742 191.1857 168.8079  1.00275536 21554

# C44 (GNSS)
1 44793U 19078A   25242.59117935 -.00000067  00000+0  00000+0 0  9999
2 44793  54.1989 310.0407 0004577  33.4997 326.5944  1.86232311 39235

# C43 (GNSS)
1 44794U 19078B   25242.72643821 -.00000066  00000+0  00000+0 0  9992
2 44794  54.1714 310.0031 0002624  19.7301 340.3453  1.86227899 39247
